[{"OBJECT_NAME":"FLOCK 4G-23","OBJECT_ID":"2025-009AQ","EPOCH":"2026-03-09T17:11:57.175872","MEAN_MOTION":15.27262579,"ECCENTRICITY":9.048e-5,"INCLINATION":97.3979,"RA_OF_ASC_NODE":150.9478,"ARG_OF_PERICENTER":7.2707,"MEAN_ANOMALY":352.8545,"EPHEMERIS_TYPE":0,"CLASSIFICATION_TYPE":"U","NORAD_CAT_ID":62647,"ELEMENT_SET_NO":999,"REV_AT_EPOCH":6372,"BSTAR":0.00046815788,"MEAN_MOTION_DOT":0.0001244,"MEAN_MOTION_DDOT":0},{"OBJECT_NAME":"STARLINK-35803","OBJECT_ID":"2025-268M","EPOCH":"2026-03-09T02:23:23.875296","MEAN_MOTION":15.27571654,"ECCENTRICITY":0.00018787,"INCLINATION":43.0033,"RA_OF_ASC_NODE":350.0373,"ARG_OF_PERICENTER":251.0604,"MEAN_ANOMALY":109.0044,"EPHEMERIS_TYPE":0,"CLASSIFICATION_TYPE":"U","NORAD_CAT_ID":66568,"ELEMENT_SET_NO":999,"REV_AT_EPOCH":1787,"BSTAR":0.0015410089,"MEAN_MOTION_DOT":0.00042377,"MEAN_MOTION_DDOT":0}]
